{"type": "FeatureCollection", "features": [ {"type": "Feature", "properties": {"norad_id": 33726, "name": "FENGYUN 1C DEB", "group": "fengyun-1c-debris", "lat": -2.9154367629846853, "lon": -79.17097410018295, "alt_km": 922.5628922496271, "timestamp": "2025-12-02T17:49:12.315024+00:00", "meta": {"OBJECT_NAME": "FENGYUN 1C DEB", "OBJECT_ID": "1999-025DHP", "EPOCH": "2025-12-02T06:55:34.688352", "MEAN_MOTION": 14.1428324, "ECCENTRICITY": 0.0193236, "INCLINATION": 98.6385, "RA_OF_ASC_NODE": 100.8334, "ARG_OF_PERICENTER": 60.93, "MEAN_ANOMALY": 330.2977, "EPHEMERIS_TYPE": 0, "CLASSIFICATION_TYPE": "U", "NORAD_CAT_ID": 33726, "ELEMENT_SET_NO": 999, "REV_AT_EPOCH": 91784, "BSTAR": 0.00043106, "MEAN_MOTION_DOT": 9.43e-06, "MEAN_MOTION_DDOT": 0}, "tle": {"line1": "1 33726U 99025DHP 25336.28859593  .00000943  00000+0  43106-3 0  9996", "line2": "2 33726  98.6385 100.8334 0193236  60.9300 330.2977 14.14283240917842"}}, "geometry": {"type": "Point", "coordinates": [-79.17097410018295, -2.9154367629846853]}}, {"type": "Feature", "properties": {"norad_id": 33728, "name": "FENGYUN 1C DEB", "group": "fengyun-1c-debris", "lat": -11.104486127660124, "lon": -150.55230966889553, "alt_km": 536.3520149788346, "timestamp": "2025-12-02T17:49:12.315034+00:00", "meta": {"OBJECT_NAME": "FENGYUN 1C DEB", "OBJECT_ID": "1999-025DHR", "EPOCH": "2025-12-01T21:38:37.344768", "MEAN_MOTION": 14.92395752, "ECCENTRICITY": 0.01478107, "INCLINATION": 98.9818, "RA_OF_ASC_NODE": 30.2685, "ARG_OF_PERICENTER": 249.9818, "MEAN_ANOMALY": 108.5432, "EPHEMERIS_TYPE": 0, "CLASSIFICATION_TYPE": "U", "NORAD_CAT_ID": 33728, "ELEMENT_SET_NO": 999, "REV_AT_EPOCH": 98138, "BSTAR": 0.00067922704, "MEAN_MOTION_DOT": 8.521e-05, "MEAN_MOTION_DDOT": 0}, "tle": {"line1": "1 33728U 99025DHR 25335.90182112  .00008521  00000+0  67923-3 0  9995", "line2": "2 33728  98.9818  30.2685 0147810 249.9818 108.5432 14.92395752981383"}}, "geometry": {"type": "Point", "coordinates": [-150.55230966889553, -11.104486127660124]}}, {"type": "Feature", "properties": {"norad_id": 33730, "name": "FENGYUN 1C DEB", "group": "fengyun-1c-debris", "lat": 70.56386407152739, "lon": 6.645142429150398, "alt_km": 651.3051388911636, "timestamp": "2025-12-02T17:49:12.315044+00:00", "meta": {"OBJECT_NAME": "FENGYUN 1C DEB", "OBJECT_ID": "1999-025DHT", "EPOCH": "2025-11-27T20:57:44.098848", "MEAN_MOTION": 14.63096088, "ECCENTRICITY": 0.00406689, "INCLINATION": 99.058, "RA_OF_ASC_NODE": 28.1817, "ARG_OF_PERICENTER": 57.0936, "MEAN_ANOMALY": 303.4166, "EPHEMERIS_TYPE": 0, "CLASSIFICATION_TYPE": "U", "NORAD_CAT_ID": 33730, "ELEMENT_SET_NO": 999, "REV_AT_EPOCH": 95462, "BSTAR": 0.0017238126, "MEAN_MOTION_DOT": 8.913e-05, "MEAN_MOTION_DDOT": 0}, "tle": {"line1": "1 33730U 99025DHT 25331.87342707  .00008913  00000+0  17238-2 0  9996", "line2": "2 33730  99.0580  28.1817 0040668  57.0936 303.4166 14.63096088954624"}}, "geometry": {"type": "Point", "coordinates": [6.645142429150398, 70.56386407152739]}}, {"type": "Feature", "properties": {"norad_id": 33731, "name": "FENGYUN 1C DEB", "group": "fengyun-1c-debris", "lat": -45.019741685339675, "lon": 169.12454681034222, "alt_km": 991.4137946686014, "timestamp": "2025-12-02T17:49:12.315054+00:00", "meta": {"OBJECT_NAME": "FENGYUN 1C DEB", "OBJECT_ID": "1999-025DHU", "EPOCH": "2025-11-28T07:46:14.335392", "MEAN_MOTION": 13.95266632, "ECCENTRICITY": 0.01296296, "INCLINATION": 99.4454, "RA_OF_ASC_NODE": 354.1889, "ARG_OF_PERICENTER": 95.0981, "MEAN_ANOMALY": 266.4989, "EPHEMERIS_TYPE": 0, "CLASSIFICATION_TYPE": "U", "NORAD_CAT_ID": 33731, "ELEMENT_SET_NO": 999, "REV_AT_EPOCH": 90248, "BSTAR": 0.00078625858, "MEAN_MOTION_DOT": 1.095e-05, "MEAN_MOTION_DDOT": 0}, "tle": {"line1": "1 33731U 99025DHU 25332.32377703  .00001095  00000+0  78626-3 0  9995", "line2": "2 33731  99.4454 354.1889 0129629  95.0981 266.4989 13.95266632902483"}}, "geometry": {"type": "Point", "coordinates": [169.12454681034222, -45.019741685339675]}}, {"type": "Feature", "properties": {"norad_id": 33733, "name": "FENGYUN 1C DEB", "group": "fengyun-1c-debris", "lat": 5.42839004351026, "lon": 60.73233470847843, "alt_km": 848.5046777675798, "timestamp": "2025-12-02T17:49:12.315064+00:00", "meta": {"OBJECT_NAME": "FENGYUN 1C DEB", "OBJECT_ID": "1999-025DHW", "EPOCH": "2025-12-01T05:07:55.247232", "MEAN_MOTION": 14.3062472, "ECCENTRICITY": 0.0081329, "INCLINATION": 99.0999, "RA_OF_ASC_NODE": 60.0061, "ARG_OF_PERICENTER": 202.8537, "MEAN_ANOMALY": 213.8436, "EPHEMERIS_TYPE": 0, "CLASSIFICATION_TYPE": "U", "NORAD_CAT_ID": 33733, "ELEMENT_SET_NO": 999, "REV_AT_EPOCH": 90283, "BSTAR": 0.0047064, "MEAN_MOTION_DOT": 0.00012718, "MEAN_MOTION_DDOT": 0}, "tle": {"line1": "1 33733U 99025DHW 25335.21383388  .00012718  00000+0  47064-2 0  9999", "line2": "2 33733  99.0999  60.0061 0081329 202.8537 213.8436 14.30624720902837"}}, "geometry": {"type": "Point", "coordinates": [60.73233470847843, 5.42839004351026]}}, {"type": "Feature", "properties": {"norad_id": 33737, "name": "FENGYUN 1C DEB", "group": "fengyun-1c-debris", "lat": 55.927534982618255, "lon": 4.006939519576068, "alt_km": 970.5376427887595, "timestamp": "2025-12-02T17:49:12.315074+00:00", "meta": {"OBJECT_NAME": "FENGYUN 1C DEB", "OBJECT_ID": "1999-025DJA", "EPOCH": "2025-12-02T12:21:10.111104", "MEAN_MOTION": 14.02935488, "ECCENTRICITY": 0.0128495, "INCLINATION": 98.3389, "RA_OF_ASC_NODE": 171.2738, "ARG_OF_PERICENTER": 312.2838, "MEAN_ANOMALY": 100.7012, "EPHEMERIS_TYPE": 0, "CLASSIFICATION_TYPE": "U", "NORAD_CAT_ID": 33737, "ELEMENT_SET_NO": 999, "REV_AT_EPOCH": 88597, "BSTAR": 0.0014546, "MEAN_MOTION_DOT": 2.387e-05, "MEAN_MOTION_DDOT": 0}, "tle": {"line1": "1 33737U 99025DJA 25336.51470036  .00002387  00000+0  14546-2 0  9994", "line2": "2 33737  98.3389 171.2738 0128495 312.2838 100.7012 14.02935488885972"}}, "geometry": {"type": "Point", "coordinates": [4.006939519576068, 55.927534982618255]}}, {"type": "Feature", "properties": {"norad_id": 33738, "name": "FENGYUN 1C DEB", "group": "fengyun-1c-debris", "lat": 11.913990834034555, "lon": -141.274105344898, "alt_km": 959.8887509097485, "timestamp": "2025-12-02T17:49:12.315084+00:00", "meta": {"OBJECT_NAME": "FENGYUN 1C DEB", "OBJECT_ID": "1999-025DJB", "EPOCH": "2025-12-02T03:34:07.425984", "MEAN_MOTION": 13.99504773, "ECCENTRICITY": 0.01853263, "INCLINATION": 99.1539, "RA_OF_ASC_NODE": 36.1825, "ARG_OF_PERICENTER": 50.5718, "MEAN_ANOMALY": 5.2798, "EPHEMERIS_TYPE": 0, "CLASSIFICATION_TYPE": "U", "NORAD_CAT_ID": 33738, "ELEMENT_SET_NO": 999, "REV_AT_EPOCH": 89088, "BSTAR": 0.00054954534, "MEAN_MOTION_DOT": 8.85e-06, "MEAN_MOTION_DDOT": 0}, "tle": {"line1": "1 33738U 99025DJB 25336.14869706  .00000885  00000+0  54955-3 0  9990", "line2": "2 33738  99.1539  36.1825 0185326  50.5718   5.2798 13.99504773890880"}}, "geometry": {"type": "Point", "coordinates": [-141.274105344898, 11.913990834034555]}}, {"type": "Feature", "properties": {"norad_id": 33740, "name": "FENGYUN 1C DEB", "group": "fengyun-1c-debris", "lat": 73.14592177171593, "lon": -159.7269361408256, "alt_km": 843.5190455494994, "timestamp": "2025-12-02T17:49:12.315094+00:00", "meta": {"OBJECT_NAME": "FENGYUN 1C DEB", "OBJECT_ID": "1999-025DJD", "EPOCH": "2025-12-02T07:07:31.709856", "MEAN_MOTION": 14.12313529, "ECCENTRICITY": 0.0001679, "INCLINATION": 98.6878, "RA_OF_ASC_NODE": 349.5292, "ARG_OF_PERICENTER": 147.5645, "MEAN_ANOMALY": 212.5631, "EPHEMERIS_TYPE": 0, "CLASSIFICATION_TYPE": "U", "NORAD_CAT_ID": 33740, "ELEMENT_SET_NO": 999, "REV_AT_EPOCH": 89999, "BSTAR": 0.00018109, "MEAN_MOTION_DOT": 2.91e-06, "MEAN_MOTION_DDOT": 0}, "tle": {"line1": "1 33740U 99025DJD 25336.29689479  .00000291  00000+0  18109-3 0  9998", "line2": "2 33740  98.6878 349.5292 0001679 147.5645 212.5631 14.12313529899999"}}, "geometry": {"type": "Point", "coordinates": [-159.7269361408256, 73.14592177171593]}}, {"type": "Feature", "properties": {"norad_id": 33741, "name": "FENGYUN 1C DEB", "group": "fengyun-1c-debris", "lat": -55.85574712522952, "lon": 57.981880849137944, "alt_km": 912.1870599311205, "timestamp": "2025-12-02T17:49:12.315104+00:00", "meta": {"OBJECT_NAME": "FENGYUN 1C DEB", "OBJECT_ID": "1999-025DJE", "EPOCH": "2025-12-01T11:45:13.004640", "MEAN_MOTION": 14.09688751, "ECCENTRICITY": 0.0126432, "INCLINATION": 98.5634, "RA_OF_ASC_NODE": 249.6268, "ARG_OF_PERICENTER": 120.4011, "MEAN_ANOMALY": 240.9727, "EPHEMERIS_TYPE": 0, "CLASSIFICATION_TYPE": "U", "NORAD_CAT_ID": 33741, "ELEMENT_SET_NO": 999, "REV_AT_EPOCH": 56704, "BSTAR": 0.0023289671, "MEAN_MOTION_DOT": 4.361e-05, "MEAN_MOTION_DDOT": 0}, "tle": {"line1": "1 33741U 99025DJE 25335.48973385  .00004361  00000+0  23290-2 0  9999", "line2": "2 33741  98.5634 249.6268 0126432 120.4011 240.9727 14.09688751567041"}}, "geometry": {"type": "Point", "coordinates": [57.981880849137944, -55.85574712522952]}}, {"type": "Feature", "properties": {"norad_id": 33745, "name": "FENGYUN 1C DEB", "group": "fengyun-1c-debris", "lat": 34.12363713990499, "lon": -160.18547164865703, "alt_km": 848.6760426030769, "timestamp": "2025-12-02T17:49:12.315114+00:00", "meta": {"OBJECT_NAME": "FENGYUN 1C DEB", "OBJECT_ID": "1999-025DJJ", "EPOCH": "2025-11-25T01:05:32.743968", "MEAN_MOTION": 14.22170506, "ECCENTRICITY": 0.00530671, "INCLINATION": 99.1146, "RA_OF_ASC_NODE": 5.6166, "ARG_OF_PERICENTER": 317.4724, "MEAN_ANOMALY": 42.2348, "EPHEMERIS_TYPE": 0, "CLASSIFICATION_TYPE": "U", "NORAD_CAT_ID": 33745, "ELEMENT_SET_NO": 999, "REV_AT_EPOCH": 65750, "BSTAR": 0.0015193996, "MEAN_MOTION_DOT": 3.37e-05, "MEAN_MOTION_DDOT": 0}, "tle": {"line1": "1 33745U 99025DJJ 25329.04551787  .00003370  00000+0  15194-2 0  9999", "line2": "2 33745  99.1146   5.6166 0053067 317.4724  42.2348 14.22170506657501"}}, "geometry": {"type": "Point", "coordinates": [-160.18547164865703, 34.12363713990499]}}]}